{"fetched_at":"2026-07-15T06:35:26.722Z","source":"https://celestrak.org/NORAD/elements/gp.php?GROUP=globalstar&FORMAT=JSON","constellation":"globalstar","records":[{"OBJECT_NAME":"GLOBALSTAR M080","OBJECT_ID":"2011-080B","EPOCH":"2026-07-14T13:08:38.086656","CLASSIFICATION_TYPE":"U","MEAN_MOTION":12.62257441,"ECCENTRICITY":0.00003085,"INCLINATION":52.0069,"RA_OF_ASC_NODE":295.7171,"ARG_OF_PERICENTER":83.6856,"MEAN_ANOMALY":289.7459,"EPHEMERIS_TYPE":0,"NORAD_CAT_ID":38041,"ELEMENT_SET_NO":999,"REV_AT_EPOCH":67234,"BSTAR":0.00013249163,"MEAN_MOTION_DOT":-8e-7,"MEAN_MOTION_DDOT":0},{"OBJECT_NAME":"GLOBALSTAR M082","OBJECT_ID":"2011-080C","EPOCH":"2026-07-14T09:42:37.922976","CLASSIFICATION_TYPE":"U","MEAN_MOTION":12.6226417,"ECCENTRICITY":0.00001878,"INCLINATION":52.0061,"RA_OF_ASC_NODE":251.6564,"ARG_OF_PERICENTER":93.2988,"MEAN_ANOMALY":279.6627,"EPHEMERIS_TYPE":0,"NORAD_CAT_ID":38042,"ELEMENT_SET_NO":999,"REV_AT_EPOCH":67303,"BSTAR":0.00018992543,"MEAN_MOTION_DOT":-7e-7,"MEAN_MOTION_DDOT":0},{"OBJECT_NAME":"GLOBALSTAR M092","OBJECT_ID":"2011-080D","EPOCH":"2026-07-14T17:09:21.415680","CLASSIFICATION_TYPE":"U","MEAN_MOTION":12.62267766,"ECCENTRICITY":0.00007894,"INCLINATION":52.0105,"RA_OF_ASC_NODE":341.109,"ARG_OF_PERICENTER":102.5494,"MEAN_ANOMALY":0.1646,"EPHEMERIS_TYPE":0,"NORAD_CAT_ID":38043,"ELEMENT_SET_NO":999,"REV_AT_EPOCH":67152,"BSTAR":0.000060414712,"MEAN_MOTION_DOT":-9.3e-7,"MEAN_MOTION_DDOT":0},{"OBJECT_NAME":"GLOBALSTAR M090","OBJECT_ID":"2011-080E","EPOCH":"2026-07-14T13:02:53.886336","CLASSIFICATION_TYPE":"U","MEAN_MOTION":12.62269509,"ECCENTRICITY":0.00004346,"INCLINATION":52.0106,"RA_OF_ASC_NODE":245.1978,"ARG_OF_PERICENTER":91.6934,"MEAN_ANOMALY":72.3141,"EPHEMERIS_TYPE":0,"NORAD_CAT_ID":38044,"ELEMENT_SET_NO":999,"REV_AT_EPOCH":67316,"BSTAR":0.00032213157,"MEAN_MOTION_DOT":-4.6e-7,"MEAN_MOTION_DDOT":0},{"OBJECT_NAME":"GLOBALSTAR M086","OBJECT_ID":"2011-080F","EPOCH":"2026-07-14T13:33:18.489312","CLASSIFICATION_TYPE":"U","MEAN_MOTION":12.62287747,"ECCENTRICITY":0.0001523,"INCLINATION":51.9879,"RA_OF_ASC_NODE":245.0174,"ARG_OF_PERICENTER":110.8409,"MEAN_ANOMALY":52.8382,"EPHEMERIS_TYPE":0,"NORAD_CAT_ID":38045,"ELEMENT_SET_NO":999,"REV_AT_EPOCH":67311,"BSTAR":0.00012783,"MEAN_MOTION_DOT":-8.1e-7,"MEAN_MOTION_DDOT":0},{"OBJECT_NAME":"GLOBALSTAR M097","OBJECT_ID":"2013-005A","EPOCH":"2026-07-14T07:45:09.246816","CLASSIFICATION_TYPE":"U","MEAN_MOTION":12.62271417,"ECCENTRICITY":0.00004133,"INCLINATION":52.0026,"RA_OF_ASC_NODE":160.7311,"ARG_OF_PERICENTER":38.736,"MEAN_ANOMALY":321.3537,"EPHEMERIS_TYPE":0,"NORAD_CAT_ID":39072,"ELEMENT_SET_NO":999,"REV_AT_EPOCH":62033,"BSTAR":-0.00011572169,"MEAN_MOTION_DOT":-0.00000125,"MEAN_MOTION_DDOT":0},{"OBJECT_NAME":"GLOBALSTAR M093","OBJECT_ID":"2013-005B","EPOCH":"2026-07-14T07:06:36.317088","CLASSIFICATION_TYPE":"U","MEAN_MOTION":12.62266341,"ECCENTRICITY":0.00006359,"INCLINATION":52.0088,"RA_OF_ASC_NODE":154.1697,"ARG_OF_PERICENTER":43.3275,"MEAN_ANOMALY":316.7642,"EPHEMERIS_TYPE":0,"NORAD_CAT_ID":39073,"ELEMENT_SET_NO":999,"REV_AT_EPOCH":62028,"BSTAR":-0.000080175076,"MEAN_MOTION_DOT":-0.00000118,"MEAN_MOTION_DDOT":0},{"OBJECT_NAME":"GLOBALSTAR M094","OBJECT_ID":"2013-005C","EPOCH":"2026-07-14T20:24:34.236864","CLASSIFICATION_TYPE":"U","MEAN_MOTION":12.62264501,"ECCENTRICITY":0.0001085,"INCLINATION":52.0007,"RA_OF_ASC_NODE":66.5731,"ARG_OF_PERICENTER":80.292,"MEAN_ANOMALY":279.8069,"EPHEMERIS_TYPE":0,"NORAD_CAT_ID":39074,"ELEMENT_SET_NO":999,"REV_AT_EPOCH":62196,"BSTAR":0.000054993523,"MEAN_MOTION_DOT":-9.4e-7,"MEAN_MOTION_DDOT":0},{"OBJECT_NAME":"GLOBALSTAR M096","OBJECT_ID":"2013-005D","EPOCH":"2026-07-14T11:13:55.497216","CLASSIFICATION_TYPE":"U","MEAN_MOTION":12.62265708,"ECCENTRICITY":0.0000729,"INCLINATION":52.0069,"RA_OF_ASC_NODE":116.5597,"ARG_OF_PERICENTER":40.4781,"MEAN_ANOMALY":319.614,"EPHEMERIS_TYPE":0,"NORAD_CAT_ID":39075,"ELEMENT_SET_NO":999,"REV_AT_EPOCH":62083,"BSTAR":-0.000032524874,"MEAN_MOTION_DOT":-0.0000011,"MEAN_MOTION_DDOT":0},{"OBJECT_NAME":"GLOBALSTAR M078","OBJECT_ID":"2013-005E","EPOCH":"2026-07-14T10:35:13.469568","CLASSIFICATION_TYPE":"U","MEAN_MOTION":12.62260142,"ECCENTRICITY":0.00008136,"INCLINATION":51.9843,"RA_OF_ASC_NODE":200.6145,"ARG_OF_PERICENTER":336.0789,"MEAN_ANOMALY":24.004,"EPHEMERIS_TYPE":0,"NORAD_CAT_ID":39076,"ELEMENT_SET_NO":999,"REV_AT_EPOCH":61945,"BSTAR":-0.000011801126,"MEAN_MOTION_DOT":-0.00000106,"MEAN_MOTION_DDOT":0},{"OBJECT_NAME":"GLOBALSTAR M095","OBJECT_ID":"2013-005F","EPOCH":"2026-07-14T09:19:37.257024","CLASSIFICATION_TYPE":"U","MEAN_MOTION":12.62264142,"ECCENTRICITY":0.00004369,"INCLINATION":52.0054,"RA_OF_ASC_NODE":198.4168,"ARG_OF_PERICENTER":10.9077,"MEAN_ANOMALY":349.1799,"EPHEMERIS_TYPE":0,"NORAD_CAT_ID":39077,"ELEMENT_SET_NO":999,"REV_AT_EPOCH":61930,"BSTAR":-0.000006386409,"MEAN_MOTION_DOT":-0.00000105,"MEAN_MOTION_DDOT":0},{"OBJECT_NAME":"GLOBALSTAR M087","OBJECT_ID":"2022-064A","EPOCH":"2026-07-14T17:14:36.394656","CLASSIFICATION_TYPE":"U","MEAN_MOTION":12.62269295,"ECCENTRICITY":0.00009137,"INCLINATION":52.0014,"RA_OF_ASC_NODE":338.6352,"ARG_OF_PERICENTER":85.5772,"MEAN_ANOMALY":274.5199,"EPHEMERIS_TYPE":0,"NORAD_CAT_ID":52888,"ELEMENT_SET_NO":999,"REV_AT_EPOCH":19461,"BSTAR":0.000007203842,"MEAN_MOTION_DOT":-0.00000102,"MEAN_MOTION_DDOT":0}]}
